OBJECT_NAME,OBJECT_ID,EPOCH,MEAN_MOTION,ECCENTRICITY,INCLINATION,RA_OF_ASC_NODE,ARG_OF_PERICENTER,MEAN_ANOMALY,EPHEMERIS_TYPE,CLASSIFICATION_TYPE,NORAD_CAT_ID,ELEMENT_SET_NO,REV_AT_EPOCH,BSTAR,MEAN_MOTION_DOT,MEAN_MOTION_DDOT
STARLINK-37577,2026-127K,2026-07-05T23:40:33.416832,15.75304587,.00010003,53.1598,168.5599,107.3305,252.7825,0,U,69452,999,437,.13515084E-2,.212423E-2,0
STARLINK-37500,2026-127L,2026-07-05T04:06:20.028960,15.75120678,.000122,53.1568,172.7180,80.9439,279.1719,0,U,69453,999,424,.2522E-2,.402871E-2,0
STARLINK-37575,2026-127M,2026-07-04T09:30:23.115168,15.75353134,.0000325,53.1598,176.4157,106.8459,253.2597,0,U,69454,999,412,.16461E-2,.260937E-2,0
STARLINK-37642,2026-127N,2026-07-06T06:06:04.437792,15.75363925,.00013793,53.1567,167.3882,46.7436,313.3700,0,U,69455,999,441,.16357702E-2,.259354E-2,0
STARLINK-37513,2026-127P,2026-07-06T04:00:01.999584,15.75333310,.00005651,53.1593,167.1867,98.5401,75.8656,0,U,69456,999,569,-.98976216E-3,-.150301E-2,0
STARLINK-37563,2026-127Q,2026-07-04T08:05:33.864000,15.75292568,.0001381,53.1598,176.7594,93.3914,266.7264,0,U,69457,999,411,.57461E-3,.88575E-3,0
STARLINK-37565,2026-127R,2026-07-04T09:23:22.328160,15.75368865,.0002113,53.1585,176.3801,248.6253,111.4542,0,U,69458,999,412,.22246E-2,.357175E-2,0
STARLINK-37498,2026-127S,2026-07-05T16:00:03.000096,15.75230971,.00012005,53.1567,170.2510,87.8215,206.2203,0,U,69459,999,561,.84487667E-3,.130845E-2,0
STARLINK-37384,2026-127T,2026-07-06T04:08:34.485504,15.75323369,.00019211,53.1590,167.5847,149.9199,210.1932,0,U,69460,999,440,.12541843E-2,.196878E-2,0
STARLINK-37707,2026-127U,2026-07-03T12:04:46.883424,15.75432955,.000165,53.1589,180.7952,68.8411,291.2786,0,U,69461,999,398,.21633E-2,.347899E-2,0
STARLINK-37525,2026-127V,2026-07-06T03:55:31.340352,15.75066432,.00020476,53.1578,167.5214,130.3270,229.7930,0,U,69462,999,440,.69618817E-2,.1171242E-1,0
STARLINK-37526,2026-127W,2026-07-04T22:53:00.945024,15.75401971,.0001986,53.1569,173.4811,110.8828,249.2405,0,U,69463,999,421,.22208E-2,.35708E-2,0
STARLINK-37574,2026-127X,2026-07-04T22:59:33.332352,15.75486798,.000118,53.1568,173.5112,141.6545,218.4559,0,U,69464,999,421,.34305E-2,.568237E-2,0
STARLINK-37535,2026-127Y,2026-07-05T11:03:29.752992,15.75255734,.00014963,53.1566,170.9558,77.6017,282.5171,0,U,69465,999,429,.23072628E-2,.369186E-2,0
STARLINK-37583,2026-127Z,2026-07-06T04:41:06.494784,15.75338660,.00014584,53.1592,166.9926,53.5173,306.5981,0,U,69466,999,441,.17989655E-2,.285884E-2,0
STARLINK-37546,2026-127AA,2026-07-06T03:42:25.292160,15.75363641,.00015263,53.1564,167.4561,137.3553,222.7586,0,U,69467,999,440,.15735011E-2,.24915E-2,0
STARLINK-37532,2026-127AB,2026-07-06T04:21:30.318624,15.75289341,.00013713,53.1593,166.9022,72.9285,287.1886,0,U,69468,999,441,.16658046E-2,.263396E-2,0
STARLINK-37708,2026-127AC,2026-07-06T03:41:55.427136,15.75398214,.00024402,53.1571,167.4532,164.9483,195.1610,0,U,69469,999,440,.20962286E-2,.336115E-2,0
STARLINK-37686,2026-127AD,2026-07-06T03:35:52.594656,15.75394333,.00008745,53.1585,167.4264,71.9565,288.1551,0,U,69470,999,440,.14590897E-2,.230791E-2,0
STARLINK-37451,2026-127AE,2026-07-06T02:17:45.324672,15.80865313,.00008279,53.1575,167.0644,41.8848,318.2238,0,U,69471,999,440,.18166755E-2,.373693E-2,0
DTC TEST OBJECT A,2026-128A,2026-07-06T07:35:23.676864,15.53425387,.00106117,55.0004,216.7172,347.8942,12.1836,0,U,69472,999,420,.17435178E-3,.10786E-3,0
DTC TEST OBJECT B,2026-128B,2026-06-27T09:02:13.824960,15.56860342,.0009934,55.0021,257.9040,325.3113,34.7274,0,U,69473,999,280,.3356545E-3,.24134E-3,0
TJS-25,2026-129A,2026-07-05T21:48:19.590912,1.00268466,.00027786,5.9642,330.2906,283.9907,116.9255,0,U,69474,999,25,0,-.357E-5,0
STARLINK-37816,2026-131A,2026-07-06T04:00:01.999584,15.80641285,.00015267,97.2848,208.5454,96.3020,194.2369,0,U,69478,999,505,-.14816325E-1,-.2428832E-1,0
STARLINK-37878,2026-131B,2026-07-06T01:23:24.842688,15.80892979,.00004426,97.2848,208.4178,25.1508,334.9782,0,U,69479,999,514,.1059932E-2,.208547E-2,0
STARLINK-37817,2026-131C,2026-07-06T01:13:09.808608,15.80863839,.00010304,97.2848,208.4267,83.6315,276.5071,0,U,69480,999,514,.30361783E-3,.58533E-3,0
STARLINK-37727,2026-131D,2026-07-06T01:12:04.448736,15.80871323,.00021456,97.2843,208.4280,352.1200,8.0034,0,U,69481,999,514,.80324453E-3,.156919E-2,0
STARLINK-37814,2026-131E,2026-07-06T01:10:46.718112,15.81208019,.00171012,97.2833,208.4291,327.3446,32.6764,0,U,69482,999,514,-.33404953E-2,-.616452E-2,0
STARLINK-37869,2026-131F,2026-07-04T00:00:02.998944,15.80795949,.0001177,97.2832,206.2639,84.5685,145.4313,0,U,69483,999,471,.31925E-3,.61384E-3,0
STARLINK-37873,2026-131G,2026-07-06T01:08:53.671488,15.80728987,.00236157,97.2849,208.4315,205.1603,154.8517,0,U,69484,999,514,.84399055E-3,.167115E-2,0
