STARLINK-37577          
1 69452U 26127K   26186.98649788  .00212423  00000+0  13515-2 0  9996
2 69452  53.1598 168.5599 0001000 107.3305 252.7825 15.75304587  4372
STARLINK-37500          
1 69453U 26127L   26186.17106515  .00402871  00000+0  25220-2 0  9998
2 69453  53.1568 172.7180 0001220  80.9439 279.1719 15.75120678  4249
STARLINK-37575          
1 69454U 26127M   26185.39610087  .00260937  00000+0  16461-2 0  9998
2 69454  53.1598 176.4157 0000325 106.8459 253.2597 15.75353134  4122
STARLINK-37642          
1 69455U 26127N   26187.25421803  .00259354  00000+0  16358-2 0  9998
2 69455  53.1567 167.3882 0001379  46.7436 313.3700 15.75363925  4415
STARLINK-37513          
1 69456U 26127P   26187.16668981 -.00150301  00000+0 -98976-3 0  9990
2 69456  53.1593 167.1867 0000565  98.5401  75.8656 15.75333310  5695
STARLINK-37563          
1 69457U 26127Q   26185.33719750  .00088575  00000+0  57461-3 0  9994
2 69457  53.1598 176.7594 0001381  93.3914 266.7264 15.75292568  4114
STARLINK-37565          
1 69458U 26127R   26185.39123065  .00357175  00000+0  22246-2 0  9996
2 69458  53.1585 176.3801 0002113 248.6253 111.4542 15.75368865  4123
STARLINK-37498          
1 69459U 26127S   26186.66670139  .00130845  00000+0  84488-3 0  9997
2 69459  53.1567 170.2510 0001200  87.8215 206.2203 15.75230971  5619
STARLINK-37384          
1 69460U 26127T   26187.17262136  .00196878  00000+0  12542-2 0  9999
2 69460  53.1590 167.5847 0001921 149.9199 210.1932 15.75323369  4403
STARLINK-37707          
1 69461U 26127U   26184.50332041  .00347899  00000+0  21633-2 0  9999
2 69461  53.1589 180.7952 0001650  68.8411 291.2786 15.75432955  3982
STARLINK-37525          
1 69462U 26127V   26187.16355718  .01171242  00000+0  69619-2 0  9995
2 69462  53.1578 167.5214 0002047 130.3270 229.7930 15.75066432  4402
STARLINK-37526          
1 69463U 26127W   26185.95348316  .00357080  00000+0  22208-2 0  9995
2 69463  53.1569 173.4811 0001986 110.8828 249.2405 15.75401971  4219
STARLINK-37574          
1 69464U 26127X   26185.95802468  .00568237  00000+0  34305-2 0  9998
2 69464  53.1568 173.5112 0001180 141.6545 218.4559 15.75486798  4216
STARLINK-37535          
1 69465U 26127Y   26186.46076103  .00369186  00000+0  23073-2 0  9997
2 69465  53.1566 170.9558 0001496  77.6017 282.5171 15.75255734  4296
STARLINK-37583          
1 69466U 26127Z   26187.19521406  .00285884  00000+0  17990-2 0  9993
2 69466  53.1592 166.9926 0001458  53.5173 306.5981 15.75338660  4414
STARLINK-37546          
1 69467U 26127AA  26187.15445940  .00249150  00000+0  15735-2 0  9999
2 69467  53.1564 167.4561 0001526 137.3553 222.7586 15.75363641  4400
STARLINK-37532          
1 69468U 26127AB  26187.18160091  .00263396  00000+0  16658-2 0  9997
2 69468  53.1593 166.9022 0001371  72.9285 287.1886 15.75289341  4416
STARLINK-37708          
1 69469U 26127AC  26187.15411374  .00336115  00000+0  20962-2 0  9991
2 69469  53.1571 167.4532 0002440 164.9483 195.1610 15.75398214  4407
STARLINK-37686          
1 69470U 26127AD  26187.14991429  .00230791  00000+0  14591-2 0  9990
2 69470  53.1585 167.4264 0000874  71.9565 288.1551 15.75394333  4408
STARLINK-37451          
1 69471U 26127AE  26187.09566348  .00373693  00000+0  18167-2 0  9995
2 69471  53.1575 167.0644 0000827  41.8848 318.2238 15.80865313  4408
DTC TEST OBJECT A       
1 69472U 26128A   26187.31624626  .00010786  00000+0  17435-3 0  9995
2 69472  55.0004 216.7172 0010611 347.8942  12.1836 15.53425387  4206
DTC TEST OBJECT B       
1 69473U 26128B   26178.37654890  .00024134  00000+0  33565-3 0  9992
2 69473  55.0021 257.9040 0009934 325.3113  34.7274 15.56860342  2801
TJS-25                  
1 69474U 26129A   26186.90856008 -.00000357  00000+0  00000+0 0  9993
2 69474   5.9642 330.2906 0002778 283.9907 116.9255  1.00268466   252
STARLINK-37816          
1 69478U 26131A   26187.16668981 -.02428832  00000+0 -14816-1 0  9997
2 69478  97.2848 208.5454 0001526  96.3020 194.2369 15.80641285  5050
STARLINK-37878          
1 69479U 26131B   26187.05792642  .00208547  00000+0  10599-2 0  9998
2 69479  97.2848 208.4178 0000442  25.1508 334.9782 15.80892979  5140
STARLINK-37817          
1 69480U 26131C   26187.05080797  .00058533  00000+0  30362-3 0  9990
2 69480  97.2848 208.4267 0001030  83.6315 276.5071 15.80863839  5145
STARLINK-37727          
1 69481U 26131D   26187.05005149  .00156919  00000+0  80324-3 0  9999
2 69481  97.2843 208.4280 0002145 352.1200   8.0034 15.80871323  5145
STARLINK-37814          
1 69482U 26131E   26187.04915183 -.00616452  00000+0 -33405-2 0  9999
2 69482  97.2833 208.4291 0017101 327.3446  32.6764 15.81208019  5141
STARLINK-37869          
1 69483U 26131F   26185.00003471  .00061384  00000+0  31925-3 0  9994
2 69483  97.2832 206.2639 0001177  84.5685 145.4313 15.80795949  4713
STARLINK-37873          
1 69484U 26131G   26187.04784342  .00167115  00000+0  84399-3 0  9996
2 69484  97.2849 208.4315 0023615 205.1603 154.8517 15.80728987  5145
